CCSDS_OMM_VERS = 2.0
CREATION_DATE  = 
ORIGINATOR     = 

OBJECT_NAME    = STARLINK-36616
OBJECT_ID      = 2026-022AA
CENTER_NAME    = EARTH
REF_FRAME      = TEME
TIME_SYSTEM    = UTC
MEAN_ELEMENT_THEORY = SGP/SGP4

EPOCH          = 2026-02-13T04:00:01.999584
MEAN_MOTION    = 15.87901006
ECCENTRICITY   = .0001497
INCLINATION    = 97.2788
RA_OF_ASC_NODE = 76.9548
ARG_OF_PERICENTER = 82.1419
MEAN_ANOMALY   = 141.9817

EPHEMERIS_TYPE = 0
CLASSIFICATION_TYPE = U
NORAD_CAT_ID   = 67672
ELEMENT_SET_NO = 999
REV_AT_EPOCH   = 295
BSTAR          = -.72105E-2
MEAN_MOTION_DOT = -.1685777E-1
MEAN_MOTION_DDOT = 0

CCSDS_OMM_VERS = 2.0
CREATION_DATE  = 
ORIGINATOR     = 

OBJECT_NAME    = COSMOS 2600
OBJECT_ID      = 2026-023A
CENTER_NAME    = EARTH
REF_FRAME      = TEME
TIME_SYSTEM    = UTC
MEAN_ELEMENT_THEORY = SGP/SGP4

EPOCH          = 2026-02-13T04:28:27.342048
MEAN_MOTION    = 15.82076664
ECCENTRICITY   = .0001892
INCLINATION    = 96.6496
RA_OF_ASC_NODE = 120.5963
ARG_OF_PERICENTER = 64.4853
MEAN_ANOMALY   = 295.6613

EPHEMERIS_TYPE = 0
CLASSIFICATION_TYPE = U
NORAD_CAT_ID   = 67674
ELEMENT_SET_NO = 999
REV_AT_EPOCH   = 117
BSTAR          = .35394E-3
MEAN_MOTION_DOT = .72294E-3
MEAN_MOTION_DDOT = 0

CCSDS_OMM_VERS = 2.0
CREATION_DATE  = 
ORIGINATOR     = 

OBJECT_NAME    = 2026-023B
OBJECT_ID      = 2026-023B
CENTER_NAME    = EARTH
REF_FRAME      = TEME
TIME_SYSTEM    = UTC
MEAN_ELEMENT_THEORY = SGP/SGP4

EPOCH          = 2026-02-13T04:59:12.223104
MEAN_MOTION    = 15.22371980
ECCENTRICITY   = .0017433
INCLINATION    = 96.6411
RA_OF_ASC_NODE = 119.9951
ARG_OF_PERICENTER = 218.1923
MEAN_ANOMALY   = 141.8082

EPHEMERIS_TYPE = 0
CLASSIFICATION_TYPE = U
NORAD_CAT_ID   = 67675
ELEMENT_SET_NO = 999
REV_AT_EPOCH   = 113
BSTAR          = .40725E-3
MEAN_MOTION_DOT = .9384E-4
MEAN_MOTION_DDOT = 0

CCSDS_OMM_VERS = 2.0
CREATION_DATE  = 
ORIGINATOR     = 

OBJECT_NAME    = 2026-023C
OBJECT_ID      = 2026-023C
CENTER_NAME    = EARTH
REF_FRAME      = TEME
TIME_SYSTEM    = UTC
MEAN_ELEMENT_THEORY = SGP/SGP4

EPOCH          = 2026-02-13T04:58:50.018304
MEAN_MOTION    = 15.22439016
ECCENTRICITY   = .0018645
INCLINATION    = 96.6446
RA_OF_ASC_NODE = 120.0071
ARG_OF_PERICENTER = 207.6604
MEAN_ANOMALY   = 152.3644

EPHEMERIS_TYPE = 0
CLASSIFICATION_TYPE = U
NORAD_CAT_ID   = 67676
ELEMENT_SET_NO = 999
REV_AT_EPOCH   = 129
BSTAR          = .53768E-3
MEAN_MOTION_DOT = .12445E-3
MEAN_MOTION_DDOT = 0

CCSDS_OMM_VERS = 2.0
CREATION_DATE  = 
ORIGINATOR     = 

OBJECT_NAME    = 2026-023D
OBJECT_ID      = 2026-023D
CENTER_NAME    = EARTH
REF_FRAME      = TEME
TIME_SYSTEM    = UTC
MEAN_ELEMENT_THEORY = SGP/SGP4

EPOCH          = 2026-02-13T04:59:35.486304
MEAN_MOTION    = 15.22315938
ECCENTRICITY   = .0018767
INCLINATION    = 96.6477
RA_OF_ASC_NODE = 119.9898
ARG_OF_PERICENTER = 212.9835
MEAN_ANOMALY   = 147.0234

EPHEMERIS_TYPE = 0
CLASSIFICATION_TYPE = U
NORAD_CAT_ID   = 67677
ELEMENT_SET_NO = 999
REV_AT_EPOCH   = 112
BSTAR          = .48384E-3
MEAN_MOTION_DOT = .11151E-3
MEAN_MOTION_DDOT = 0

CCSDS_OMM_VERS = 2.0
CREATION_DATE  = 
ORIGINATOR     = 

OBJECT_NAME    = 2026-023E
OBJECT_ID      = 2026-023E
CENTER_NAME    = EARTH
REF_FRAME      = TEME
TIME_SYSTEM    = UTC
MEAN_ELEMENT_THEORY = SGP/SGP4

EPOCH          = 2026-02-13T04:59:02.247360
MEAN_MOTION    = 15.22409721
ECCENTRICITY   = .0018636
INCLINATION    = 96.6370
RA_OF_ASC_NODE = 119.9959
ARG_OF_PERICENTER = 212.2961
MEAN_ANOMALY   = 147.7138

EPHEMERIS_TYPE = 0
CLASSIFICATION_TYPE = U
NORAD_CAT_ID   = 67678
ELEMENT_SET_NO = 999
REV_AT_EPOCH   = 112
BSTAR          = .53768E-3
MEAN_MOTION_DOT = .12434E-3
MEAN_MOTION_DDOT = 0

CCSDS_OMM_VERS = 2.0
CREATION_DATE  = 
ORIGINATOR     = 

OBJECT_NAME    = 2026-023F
OBJECT_ID      = 2026-023F
CENTER_NAME    = EARTH
REF_FRAME      = TEME
TIME_SYSTEM    = UTC
MEAN_ELEMENT_THEORY = SGP/SGP4

EPOCH          = 2026-02-13T00:14:05.938944
MEAN_MOTION    = 15.22533409
ECCENTRICITY   = .0020566
INCLINATION    = 96.6376
RA_OF_ASC_NODE = 122.3180
ARG_OF_PERICENTER = 207.5326
MEAN_ANOMALY   = 152.4825

EPHEMERIS_TYPE = 0
CLASSIFICATION_TYPE = U
NORAD_CAT_ID   = 67679
ELEMENT_SET_NO = 999
REV_AT_EPOCH   = 108
BSTAR          = .52598E-3
MEAN_MOTION_DOT = .12219E-3
MEAN_MOTION_DDOT = 0

CCSDS_OMM_VERS = 2.0
CREATION_DATE  = 
ORIGINATOR     = 

OBJECT_NAME    = 2026-023G
OBJECT_ID      = 2026-023G
CENTER_NAME    = EARTH
REF_FRAME      = TEME
TIME_SYSTEM    = UTC
MEAN_ELEMENT_THEORY = SGP/SGP4

EPOCH          = 2026-02-11T18:16:07.603104
MEAN_MOTION    = 15.22461471
ECCENTRICITY   = .00219813
INCLINATION    = 96.6308
RA_OF_ASC_NODE = 121.2169
ARG_OF_PERICENTER = 208.3069
MEAN_ANOMALY   = 151.6977

EPHEMERIS_TYPE = 0
CLASSIFICATION_TYPE = U
NORAD_CAT_ID   = 67680
ELEMENT_SET_NO = 999
REV_AT_EPOCH   = 89
BSTAR          = .18544454E-3
MEAN_MOTION_DOT = .426E-4
MEAN_MOTION_DDOT = 0

CCSDS_OMM_VERS = 2.0
CREATION_DATE  = 
ORIGINATOR     = 

OBJECT_NAME    = 2026-023H
OBJECT_ID      = 2026-023H
CENTER_NAME    = EARTH
REF_FRAME      = TEME
TIME_SYSTEM    = UTC
MEAN_ELEMENT_THEORY = SGP/SGP4

EPOCH          = 2026-02-11T18:15:54.484128
MEAN_MOTION    = 15.22485070
ECCENTRICITY   = .0021935
INCLINATION    = 96.6434
RA_OF_ASC_NODE = 121.2090
ARG_OF_PERICENTER = 207.5112
MEAN_ANOMALY   = 152.4967

EPHEMERIS_TYPE = 0
CLASSIFICATION_TYPE = U
NORAD_CAT_ID   = 67681
ELEMENT_SET_NO = 999
REV_AT_EPOCH   = 89
BSTAR          = .13313E-3
MEAN_MOTION_DOT = .3043E-4
MEAN_MOTION_DDOT = 0

CCSDS_OMM_VERS = 2.0
CREATION_DATE  = 
ORIGINATOR     = 

OBJECT_NAME    = 2026-023J
OBJECT_ID      = 2026-023J
CENTER_NAME    = EARTH
REF_FRAME      = TEME
TIME_SYSTEM    = UTC
MEAN_ELEMENT_THEORY = SGP/SGP4

EPOCH          = 2026-02-12T11:36:49.416192
MEAN_MOTION    = 15.22559272
ECCENTRICITY   = .00223262
INCLINATION    = 96.6404
RA_OF_ASC_NODE = 121.8631
ARG_OF_PERICENTER = 202.1000
MEAN_ANOMALY   = 157.9278

EPHEMERIS_TYPE = 0
CLASSIFICATION_TYPE = U
NORAD_CAT_ID   = 67682
ELEMENT_SET_NO = 999
REV_AT_EPOCH   = 100
BSTAR          = .6592174E-3
MEAN_MOTION_DOT = .15363E-3
MEAN_MOTION_DDOT = 0

CCSDS_OMM_VERS = 2.0
CREATION_DATE  = 
ORIGINATOR     = 

OBJECT_NAME    = ISS OBJECT XZ
OBJECT_ID      = 1998-067XZ
CENTER_NAME    = EARTH
REF_FRAME      = TEME
TIME_SYSTEM    = UTC
MEAN_ELEMENT_THEORY = SGP/SGP4

EPOCH          = 2026-02-12T23:34:35.161824
MEAN_MOTION    = 15.49822128
ECCENTRICITY   = .0010729
INCLINATION    = 51.6301
RA_OF_ASC_NODE = 194.4215
ARG_OF_PERICENTER = 106.2129
MEAN_ANOMALY   = 254.0041

EPHEMERIS_TYPE = 0
CLASSIFICATION_TYPE = U
NORAD_CAT_ID   = 67683
ELEMENT_SET_NO = 999
REV_AT_EPOCH   = 95
BSTAR          = .6497E-3
MEAN_MOTION_DOT = .36636E-3
MEAN_MOTION_DDOT = 0

CCSDS_OMM_VERS = 2.0
CREATION_DATE  = 
ORIGINATOR     = 

OBJECT_NAME    = GXIBA-1
OBJECT_ID      = 1998-067YA
CENTER_NAME    = EARTH
REF_FRAME      = TEME
TIME_SYSTEM    = UTC
MEAN_ELEMENT_THEORY = SGP/SGP4

EPOCH          = 2026-02-12T20:25:10.880832
MEAN_MOTION    = 15.50533963
ECCENTRICITY   = .0012584
INCLINATION    = 51.6297
RA_OF_ASC_NODE = 195.0439
ARG_OF_PERICENTER = 100.5958
MEAN_ANOMALY   = 259.6449

EPHEMERIS_TYPE = 0
CLASSIFICATION_TYPE = U
NORAD_CAT_ID   = 67684
ELEMENT_SET_NO = 999
REV_AT_EPOCH   = 93
BSTAR          = .10501E-2
MEAN_MOTION_DOT = .61267E-3
MEAN_MOTION_DDOT = 0

