STARLINK-36616          
1 67672U 26022AA  26044.16668981 -.01685777  00000+0 -72105-2 0  9990
2 67672  97.2788  76.9548 0001497  82.1419 141.9817 15.87901006  2950
COSMOS 2600             
1 67674U 26023A   26044.18642757  .00072294  00000+0  35394-3 0  9999
2 67674  96.6496 120.5963 0001892  64.4853 295.6613 15.82076664  1174
2026-023B               
1 67675U 26023B   26044.20778036  .00009384  00000+0  40725-3 0  9997
2 67675  96.6411 119.9951 0017433 218.1923 141.8082 15.22371980  1136
2026-023C               
1 67676U 26023C   26044.20752336  .00012445  00000+0  53768-3 0  9996
2 67676  96.6446 120.0071 0018645 207.6604 152.3644 15.22439016  1299
2026-023D               
1 67677U 26023D   26044.20804961  .00011151  00000+0  48384-3 0  9990
2 67677  96.6477 119.9898 0018767 212.9835 147.0234 15.22315938  1122
2026-023E               
1 67678U 26023E   26044.20766490  .00012434  00000+0  53768-3 0  9992
2 67678  96.6370 119.9959 0018636 212.2961 147.7138 15.22409721  1125
2026-023F               
1 67679U 26023F   26044.00979096  .00012219  00000+0  52598-3 0  9990
2 67679  96.6376 122.3180 0020566 207.5326 152.4825 15.22533409  1085
2026-023G               
1 67680U 26023G   26042.76119911  .00004260  00000+0  18544-3 0  9995
2 67680  96.6308 121.2169 0021981 208.3069 151.6977 15.22461471   898
2026-023H               
1 67681U 26023H   26042.76104727  .00003043  00000+0  13313-3 0  9992
2 67681  96.6434 121.2090 0021935 207.5112 152.4967 15.22485070   890
2026-023J               
1 67682U 26023J   26043.48390528  .00015363  00000+0  65922-3 0  9990
2 67682  96.6404 121.8631 0022326 202.1000 157.9278 15.22559272  1002
ISS OBJECT XZ           
1 67683U 98067XZ  26043.98235141  .00036636  00000+0  64970-3 0  9990
2 67683  51.6301 194.4215 0010729 106.2129 254.0041 15.49822128   956
GXIBA-1                 
1 67684U 98067YA  26043.85082038  .00061267  00000+0  10501-2 0  9990
2 67684  51.6297 195.0439 0012584 100.5958 259.6449 15.50533963   933
